 Automated mail xmit by MAIL_REQUEST, PID= 432 Mon Jul 31 11:18:16 2017
++++++++++++++++++++++++++++++++ (part 1 of 1)  +++++++++++++++++++++++++++++++

*******************************************************************************
 Revised: Jun 17, 2016           Callisto / (Jupiter)                       504

 SATELLITE PHYSICAL PROPERTIES:
  Radius (km)             = 2403   +- 5     Density (g cm^-3)   = 1.851 +- .004
  Mass (10^20 kg )        = 1076   +- 1     Geometric Albedo    =  0.20 

 SATELLITE ORBITAL DATA:
  Semi-major axis, a (km) = 1883  (10^3)    Orbital period      = 16.689018 d
  Eccentricity, e         = 0.007           Rotational period   = Synchronous
  Inclination, i  (deg)   = 0.281
*******************************************************************************
 
 
*******************************************************************************
Ephemeris / MAIL_REQUEST Mon Jul 31 11:18:16 2017 Pasadena, USA  / Horizons    
*******************************************************************************
Target body name: Callisto (504)                  {source: jup310}
Center body name: Solar System Barycenter (0)     {source: DE431mx}
Center-site name: BODY CENTER
*******************************************************************************
Start time      : A.D. 2017-Jul-10 00:00:00.0000 TDB
Stop  time      : A.D. 2020-Aug-13 00:00:00.0000 TDB
Step-size       : 1440 minutes
*******************************************************************************
Center geodetic : 0.00000000,0.00000000,0.0000000 {E-lon(deg),Lat(deg),Alt(km)}
Center cylindric: 0.00000000,0.00000000,0.0000000 {E-lon(deg),Dxy(km),Dz(km)}
Center radii    : (undefined)                                                  
Output units    : KM-S                                                         
Output type     : GEOMETRIC cartesian states
Output format   : 3 (position, velocity, LT, range, range-rate)
Reference frame : ICRF/J2000.0                                                 
Coordinate systm: Ecliptic and Mean Equinox of Reference Epoch                 
*******************************************************************************
            JDTDB,            Calendar Date (TDB),                      X,                      Y,                      Z,                     VX,                     VY,                     VZ,                     LT,                     RG,                     RR,
**************************************************************************************************************************************************************************************************************************************************************************
$$SOE
2458565.500000000, A.D. 2019-Mar-23 00:00:00.0000, -2.334177723899424E+08, -7.613961270593469E+08,  8.384758120333910E+06,  1.777139411747870E+01,  2.949462247147205E+00,  5.863554672830507E-03,  2.656557359261525E+03,  7.964158605510018E+08, -8.028241916402836E+00,
2458566.500000000, A.D. 2019-Mar-24 00:00:00.0000, -2.319929742487972E+08, -7.610646497438493E+08,  8.386163509436429E+06,  1.510769721079720E+01,  4.554822752755482E+00,  1.996920546114245E-02,  2.654110771505054E+03,  7.956823919937766E+08, -8.761318332637732E+00,
2458567.500000000, A.D. 2019-Mar-25 00:00:00.0000, -2.308189182187052E+08, -7.606410496378019E+08,  8.387041398518503E+06,  1.203809718789755E+01,  5.054819987246930E+00, -6.252169101622851E-03,  2.651619560523014E+03,  7.949355457300743E+08, -8.332218409317377E+00,
2458568.500000000, A.D. 2019-Mar-26 00:00:00.0000, -2.299116101749329E+08, -7.602253457775452E+08,  8.384020619813085E+06,  9.009323912066137E+00,  4.374473606892743E+00, -6.917665158161901E-02,  2.649415043413769E+03,  7.942746481271904E+08, -6.795525790487494E+00,
2458569.500000000, A.D. 2019-Mar-27 00:00:00.0000, -2.292481312037204E+08, -7.599163051707115E+08,  8.374291722848713E+06,  6.463222028230863E+00,  2.617490834481212E+00, -1.596007953755680E-01,  2.647788054384918E+03,  7.937868890870923E+08, -4.374085950067304E+00,
2458570.500000000, A.D. 2019-Mar-28 00:00:00.0000, -2.287702073428820E+08, -7.597965421982510E+08,  8.356029625664115E+06,  4.765326978471876E+00,  4.846019913818257E-02, -2.642675822803343E-01,  2.646944943051678E+03,  7.935341306681325E+08, -1.422992303376995E+00,
2458571.500000000, A.D. 2019-Mar-29 00:00:00.0000, -2.283933730680246E+08, -7.599204428761150E+08,  8.328651689382136E+06,  4.149071952222419E+00, -2.953264303445131E+00, -3.680712077152555E-01,  2.646977651040890E+03,  7.935439362766144E+08,  1.630104879028867E+00,
2458572.500000000, A.D. 2019-Mar-30 00:00:00.0000, -2.280198750114258E+08, -7.603068833219508E+08,  8.292874317509890E+06,  4.686082910208420E+00, -5.956039035267079E+00, -4.564285562727988E-01,  2.647852697319508E+03,  7.938062685513455E+08,  4.353848626093641E+00,
2458573.500000000, A.D. 2019-Mar-31 00:00:00.0000, -2.275529011567376E+08, -7.609375431869620E+08,  8.250575083334267E+06,  6.284886601235820E+00, -8.540918777593498E+00, -5.173462016098300E-01,  2.649419500846901E+03,  7.942759844320256E+08,  6.376490372638286E+00,
2458574.500000000, A.D. 2019-Apr-01 00:00:00.0000, -2.269098702900472E+08, -7.617605315891774E+08,  8.204500020140171E+06,  8.712722177908093E+00, -1.035791090907781E+01, -5.429028640235911E-01,  2.651434901278727E+03,  7.948801862813367E+08,  7.433561581241825E+00,
2458575.500000000, A.D. 2019-Apr-02 00:00:00.0000, -2.260331041566345E+08, -7.626982305975512E+08,  8.157872836788058E+06,  1.163301481922868E+01, -1.116696137136511E+01, -5.300397241737271E-01,  2.653598515861414E+03,  7.955288216152451E+08,  7.395396712575854E+00,
2458576.500000000, A.D. 2019-Apr-03 00:00:00.0000, -2.248968640345041E+08, -7.636579814150169E+08,  8.113963268830359E+06,  1.465092687267018E+01, -1.086277137873325E+01, -4.807331752028103E-01,  2.655593296892279E+03,  7.961268419236602E+08,  6.276127923780390E+00,
2458577.500000000, A.D. 2019-Apr-04 00:00:00.0000, -2.235103158377145E+08, -7.645442368401792E+08,  8.075663677150369E+06,  1.736140052175969E+01, -9.484069032350503E+00, -4.016428171142343E-01,  2.657126374764995E+03,  7.965864471074269E+08,  4.227155365738922E+00,
2458578.500000000, A.D. 2019-Apr-05 00:00:00.0000, -2.219163151371752E+08, -7.652708928083401E+08,  8.045115938038349E+06,  1.939750595487165E+01, -7.208948821153491E+00, -3.033204269507563E-01,  2.657966126194004E+03,  7.968381982524385E+08,  1.518169448790399E+00,
2458579.500000000, A.D. 2019-Apr-06 00:00:00.0000, -2.201861668854955E+08, -7.657726705212065E+08,  8.023422724563777E+06,  2.047455144081701E+01, -4.336990408870394E+00, -1.990343873292544E-01,  2.657972388843089E+03,  7.968400757474015E+08, -1.491718660032516E+00,
2458580.500000000, A.D. 2019-Apr-07 00:00:00.0000, -2.184107545725603E+08, -7.660142345402430E+08,  8.010479657327116E+06,  2.043026040998269E+01, -1.254981418716924E+00, -1.031666998134189E-01,  2.657116461661646E+03,  7.965834752338076E+08, -4.395874989949964E+00,
2458581.500000000, A.D. 2019-Apr-08 00:00:00.0000, -2.166885713450302E+08, -7.659958200888380E+08,  8.004957440143466E+06,  1.925418092237764E+01,  1.609245051596497E+00, -2.936274553718066E-02,  2.655487845543817E+03,  7.960952284047055E+08, -6.789477934530366E+00,
2458582.500000000, A.D. 2019-Apr-09 00:00:00.0000, -2.151120046151037E+08, -7.657543162731396E+08,  8.004451839969099E+06,  1.709800725932837E+01,  3.845690579662891E+00,  1.147336037259694E-02,  2.653285727214368E+03,  7.954350499379131E+08, -8.325945580926966E+00,
2458583.500000000, A.D. 2019-Apr-10 00:00:00.0000, -2.137537160048624E+08, -7.653589601288135E+08,  8.005802481107593E+06,  1.426216936642217E+01,  5.125842869289483E+00,  1.300728933685047E-02,  2.650793972183065E+03,  7.946880405723447E+08, -8.772747265425391E+00,
2458584.500000000, A.D. 2019-Apr-11 00:00:00.0000, -2.126553543059360E+08, -7.649017938644812E+08,  8.005545638529301E+06,  1.115520283243249E+01,  5.258267706261365E+00, -2.531803349887585E-02,  2.648341671302924E+03,  7.939528592637318E+08, -8.053972754033580E+00,
2458585.500000000, A.D. 2019-Apr-12 00:00:00.0000, -2.118208142167147E+08, -7.644841165183531E+08,  8.000432281732857E+06,  8.230694349108528E+00,  4.223624350401650E+00, -9.802341759362854E-02,  2.646254659642543E+03,  7.933271889081917E+08, -6.268675028241454E+00,
2458586.500000000, A.D. 2019-Apr-13 00:00:00.0000, -2.112154868949872E+08, -7.642011770648599E+08,  7.987921194535017E+06,  5.914098775766023E+00,  2.179257068848378E+00, -1.944330155249175E-01,  2.644806189628838E+03,  7.928929485224433E+08, -3.677789278677640E+00,
2458587.500000000, A.D. 2019-Apr-14 00:00:00.0000, -2.107717277740124E+08, -7.641278927056895E+08,  7.966556199097335E+06,  4.534592860532224E+00, -5.685214548163970E-01, -3.004610817127715E-01,  2.644175908454856E+03,  7.927039949800642E+08, -6.606936689470444E-01,
2458588.500000000, A.D. 2019-Apr-15 00:00:00.0000, -2.103994376461419E+08, -7.643081049965328E+08,  7.936163278441846E+06,  4.276958900760198E+00, -3.616918805916109E+00, -4.009153476034184E-01,  2.644424504819738E+03,  7.927785222953418E+08,  2.347930511376291E+00,
2458589.500000000, A.D. 2019-Apr-16 00:00:00.0000, -2.099996361377082E+08, -7.647490126159370E+08,  7.897844100834072E+06,  5.160951129873218E+00, -6.531603081197517E+00, -4.818218963608678E-01,  2.645487723747807E+03,  7.930972673111801E+08,  4.926802744854490E+00,
2458590.500000000, A.D. 2019-Apr-17 00:00:00.0000, -2.094786132529010E+08, -7.654212436489108E+08,  7.853783928502202E+06,  7.047907193060447E+00, -8.910179994891115E+00, -5.323406943950868E-01,  2.647189230227165E+03,  7.936073661209297E+08,  6.728105820131712E+00,
2458591.500000000, A.D. 2019-Apr-18 00:00:00.0000, -2.087605531695896E+08, -7.662639504248068E+08,  7.806921040140808E+06,  9.668112440154975E+00, -1.043366677592679E+01, -5.460322661492607E-01,  2.649268350539972E+03,  7.942306707099841E+08,  7.519678614147615E+00,
